#cP2024  9 19  0  0  0.00000000     289 d     IGS20 FIT MIT 
## 2332 345600.00000000   300.00000000 60572 0.0000000000000
+   59   E02E03E04E05E06E07E08E09E10E11E12E13E14E15E18E19E21
+        E24E25E26E27E29E30E31E33E34E36G01G02G03G04G05G06G07
+        G08G09G10G11G12G13G14G15G16G17G18G19G20G21G22G23G24
+        G25G26G27G28G29G30G31G32  0  0  0  0  0  0  0  0  0
+          0  0  0  0  0  0  0  0  0  0  0  0  0  0  0  0  0
++         4  4  4  4  4  4  4  4  5  5  6  4  4  4  4  4  4
++         5  4  5  4  4  4  4  4  4  4  6  4  5  4  4  5  4
++         4  4  4  6  4  4  4  4  3  4  6  5  4  5  4  4  4
++         4  3  4  5  3  6  5  4  0  0  0  0  0  0  0  0  0
++         0  0  0  0  0  0  0  0  0  0  0  0  0  0  0  0  0
%c  M cc GPS ccc cccc cccc cccc cccc ccccc ccccc ccccc ccccc
%c cc cc ccc ccc cccc cccc cccc cccc ccccc ccccc ccccc ccccc
%f  1.2500000  1.025000000  0.00000000000  0.000000000000000
%f  1.2500000  1.025000000  0.00000000000  0.000000000000000
%i    0    0    0    0      0      0      0      0         0
%i    0    0    0    0      0      0      0      0         0
/* Created with sh_mergesp3 Fri Sep 27 05:39:10 UTC 2024    
/* Input: mie23324.sp3 mit23324.sp3 
/*                                                          
/* PCV:IGS20_2317 OL/AL:FES2014B NONE     YN ORB:CoN CLK:CoN
*  2024  9 19  1 10  0.00000000
PE02   2527.670063 -19039.121907  22520.610458    160.375684
PE03   8582.432695 -28176.710012  -3008.203911   -141.313726
PE04   5281.336020  24780.336889 -15301.748909    -36.423866
PE05  17041.407403 -14899.906976 -19077.010781   4785.425897
PE06  11499.581732  17077.318517 -21287.765551    -27.239116
PE07 -15485.099435  -7549.523220  24068.843428   -142.808032
PE08  -4612.704975 -25268.636879  14713.382495   -337.806712
PE09  15328.439501   7586.482124 -24163.064691   -594.885933
PE10  18190.326463   8913.255222  21585.117783   -657.581517
PE11  25717.100653   1993.763263  14510.459382   1613.222013
PE12   8913.574419  13880.113651  24575.015652  -1216.040621
PE13 -25398.635022  -2338.701065 -15012.741001    -24.917835
PE14  -7830.864356 -26977.886214 -15831.921652    235.593383
PE15  -8170.741641 -14083.442450 -24712.940726   -127.971376
PE18  11244.626398  13641.778531  16543.499460    563.147214
PE19  -9854.975306  27490.006122   4835.428348    643.947181
PE21 -18651.604609   4003.602064 -22628.829478   -617.620374
PE24  24341.204558  14079.363753   9264.329677   -995.256427
PE25  18930.225544  -3600.014015  22478.929486      9.223161
PE26 -27268.189835  10868.980767   3762.210629   -265.222300
PE27 -24372.263722 -13903.447969  -9409.590929   -456.056059
PE29 -17114.940369  15256.681003  18717.620570    -31.246318
PE30 -15593.158607 -23432.894647   9141.559377   -731.256951
PE31  15667.858994  23378.495834  -9164.935560    -36.347423
PE33 -14012.515890  17323.554201  19482.389217     15.401373
PE34  13556.794597 -17402.818876 -19748.329342   -135.136935
PE36  27473.623395 -10531.656644  -3243.671643   -285.266919
PG01  21234.928878   3731.919130  15346.563266    193.805574
PG02   4103.127790 -16858.864923 -19540.216508   -355.155137
PG03  -8659.381808 -20216.995136 -15137.642885    542.486567
PG04   -114.902269 -25416.288147   7463.986512    446.247021
PG05  -6873.943739  13335.519645  21729.472720   -187.055467
PG06 -25380.023410   4451.364580  -6602.744768     21.294875
PG07 -14627.072771 -10071.150351  20406.675118    -36.265630
PG08   6369.899510 -25155.074600   4327.781029    357.151993
PG09  -8485.109139 -19449.639331  15842.391557    362.394799
PG10  22378.421556   8415.253731 -11710.540570   -129.819409
PG11 -21882.840532  12776.682262   7878.153022   -736.078505
PG12   3887.741712  20150.054082 -17164.929474   -539.073934
PG13 -13592.573511  20240.298141  10014.268648    677.206728
PG14 -22579.792145 -11405.942216  -8418.113109    498.686762
PG15  -2784.228469  26018.937696   3471.922637    205.881654
PG16  12206.919572  -9045.189787  21471.953593   -177.325795
PG17 -14512.266360  -3307.567604 -21577.531518    622.640005
PG18  15009.495865   9096.897633  20025.951058   -654.115769
PG19 -16131.296427   5260.624548 -20476.400821    539.842227
PG20 -16581.906324   6670.441011  19666.454188    370.493910
PG21   9523.275607 -17492.249945 -16606.966200    101.476433
PG22 -20655.571374  -5437.803448 -15182.794301    -63.206377
PG23  20881.462802  16605.155548    440.636391    323.213487
PG24  -5354.291120  18188.556916 -18886.306343   -486.563702
PG25  15532.619990  20092.734370  -8561.309747    499.620743
PG26  20958.925574   -342.751258  16364.004738     75.763177
PG27  12534.666449 -18632.190059  13549.941289    -33.888137
PG28  24800.213397  -3541.643665  -8842.780190   -416.189125
PG29   4800.658650  21741.727069  14344.827512   -576.958749
PG30 -22648.511530  -2503.914876  14012.137385   -318.698153
PG31  24364.434590 -10657.942710   2837.881152   -224.533847
PG32  14975.192551   1782.730510 -21645.608419   -595.816047
*  2024  9 19  1 15  0.00000000
PE02   3024.390358 -18570.773580  22848.397177    160.376547
PE03   8542.806458 -28079.280321  -3901.912795   -141.314514
PE04   5199.818556  25222.869420 -14590.017154    -36.426674
PE05  16907.405585 -14333.390088 -19622.502282   4785.426892
PE06  11369.587201  17696.608988 -20846.990610    -27.240308
PE07 -15334.811192  -8255.997493  23933.003028   -142.808674
PE08  -4539.567216 -25694.802232  13980.489110   -337.808601
PE09  15177.916752   8295.496307 -24024.307199   -594.890109
PE10  17555.745006   9088.116425  22032.548801   -657.582327
PE11  25276.768472   2090.411391  15251.244021   1613.176341
PE12   8203.066586  14097.085727  24698.764892  -1216.045430
PE13 -24943.693974  -2438.786548 -15741.770750    -24.917986
PE14  -7834.409948 -27347.403357 -15284.536816    235.600444
PE15  -7456.706878 -14303.352411 -24812.284695   -127.972053
PE18  10865.480315  14366.630513  16011.170129    563.160080
PE19  -9798.557914  27339.839479   5720.486147    643.965136
PE21 -19155.246043   3552.682987 -22280.799376   -617.620978
PE24  24549.062868  14246.844038   8423.015900   -995.262815
PE25  19430.108495  -3153.149689  22116.528828      9.223273
PE26 -27349.024200  10943.157181   2847.579026   -265.219009
PE27 -24584.712050 -14072.433532  -8568.589783   -456.058994
PE29 -16984.785312  14699.804775  19272.981465    -31.247192
PE30 -15393.016663 -23225.376626   9972.407097   -731.268797
PE31  15467.833844  23169.469694  -9996.716387    -36.347817
PE33 -14553.964153  17530.130800  18891.184970     15.401415
PE34  14105.522116 -17612.520081 -19170.016857   -135.137636
PE36  27537.799621 -10607.410218  -2322.859387   -285.268541
PG01  21647.973980   4155.950253  14671.935315    193.802418
PG02   4813.681862 -17157.907085 -19113.535194   -355.152945
PG03  -8185.456534 -19883.645638 -15831.413583    542.490466
PG04     13.348597 -25664.056702   6556.270373    446.249117
PG05  -7558.021673  12845.558994  21798.758926   -187.055627
PG06 -25144.410034   4309.397611  -7521.807143     21.286985
PG07 -13939.791504 -10362.486823  20734.443231    -36.264162
PG08   6450.020163 -24954.844725   5258.382964    357.155827
PG09  -8346.740639 -20033.532606  15176.469832    362.399628
PG10  22687.909706   8725.328000 -10883.503877   -129.823166
PG11 -22174.416194  12794.162915   6977.541296   -736.079758
PG12   3379.416415  19745.233433 -17741.424499   -539.074678
PG13 -13541.867469  19827.357536  10861.408460    677.207538
PG14 -22756.623832 -11669.145997  -7547.335939    498.689422
PG15  -2896.870717  25849.025616   4394.943629    205.883033
PG16  12810.308885  -8461.765337  21372.831727   -177.322858
PG17 -14326.952863  -4138.694923 -21553.221447    622.636674
PG18  14299.209973   9383.432306  20403.744248   -654.116401
PG19 -15963.005137   4499.525660 -20801.965413    539.843677
PG20 -17210.962298   6280.669169  19243.951315    370.493813
PG21  10145.730485 -17715.573467 -15973.523576    101.476421
PG22 -21031.358862  -5899.143392 -14488.580280    -63.207403
PG23  20818.278253  16632.506598   1400.972710    323.215981
PG24  -5996.571309  18448.310783 -18412.235276   -486.563595
PG25  15226.402180  19955.044511  -9417.165377    499.620719
PG26  21433.843231     60.345556  15758.282935     75.760600
PG27  12530.687577 -18076.586506  14283.652399    -33.888141
PG28  24505.031653  -3334.310673  -9705.366271   -416.193268
PG29   4618.648943  22249.162514  13606.131794   -576.957945
PG30 -22173.598664  -2767.618685  14704.405293   -318.695991
PG31  24483.748893 -10615.587687   1902.407973   -224.533559
PG32  14857.474629   2614.478670 -21648.230395   -595.814912
EOF
